H1 CPF 01  gfz 2022 06 05 12  6562 tandemx   
H2 1003001  6202 36605    2022 06 05 12 59 42 2022 06 10 00 00 42   120 1 1  0 0 0
H9
10 0 59735  63342.000000  0   -5604910.250  -1137530.992   3830578.109
10 0 59735  63462.000000  0   -6084934.708  -1034916.235   3050199.774
10 0 59735  63582.000000  0   -6456535.690   -906752.143   2216102.479
10 0 59735  63702.000000  0   -6712799.269   -757237.085   1342973.842
10 0 59735  63822.000000  0   -6848926.538   -591047.645    446194.295
10 0 59735  63942.000000  0   -6862327.675   -413217.807   -458441.962
10 0 59735  64062.000000  0   -6752672.108   -229010.010  -1355014.237
10 0 59735  64182.000000  0   -6521891.905    -43781.482  -2227764.152
10 0 59735  64302.000000  0   -6174141.726    137149.857  -3061378.550
10 0 59735  64422.000000  0   -5715714.659    308637.896  -3841264.501
10 0 59735  64542.000000  0   -5154914.796    465835.347  -4553806.193
10 0 59735  64662.000000  0   -4501893.430    604311.604  -5186599.730
10 0 59735  64782.000000  0   -3768452.760    720159.641  -5728661.991
10 0 59735  64902.000000  0   -2967822.789    810088.562  -6170611.649
10 0 59735  65022.000000  0   -2114416.458    871500.518  -6504819.184
10 0 59735  65142.000000  0   -1223568.753    902551.725  -6725527.562
10 0 59735  65262.000000  0    -311262.395    902196.199  -6828940.482
10 0 59735  65382.000000  0     606152.536    870211.193  -6813279.188
10 0 59735  65502.000000  0    1512243.277    807204.331  -6678811.754
10 0 59735  65622.000000  0    2390783.192    714602.484  -6427850.251
10 0 59735  65742.000000  0    3226036.618    594622.593  -6064714.992
10 0 59735  65862.000000  0    4003036.942    450224.666  -5595667.129
10 0 59735  65982.000000  0    4707853.158    285046.761  -5028811.243
10 0 59735  66102.000000  0    5327843.149    103324.461  -4373967.447
10 0 59735  66222.000000  0    5851887.997    -90205.196  -3642511.510
10 0 59735  66342.000000  0    6270600.822   -290413.215  -2847185.989
10 0 59735  66462.000000  0    6576507.519   -491899.623  -2001884.883
10 0 59735  66582.000000  0    6764193.511   -689123.153  -1121412.447
10 0 59735  66702.000000  0    6830411.095   -876536.078   -221221.941
10 0 59735  66822.000000  0    6774145.257  -1048721.540    682860.310
10 0 59735  66942.000000  0    6596635.008  -1200529.815   1574920.943
10 0 59735  67062.000000  0    6301349.864  -1327210.140   2439248.335
10 0 59735  67182.000000  0    5893919.826  -1424533.623   3260619.320
10 0 59735  67302.000000  0    5382022.130  -1488904.572   4024573.917
10 0 59735  67422.000000  0    4775228.431  -1517458.549   4717674.592
10 0 59735  67542.000000  0    4084816.111  -1508142.780   5327744.013
10 0 59735  67662.000000  0    3323549.660  -1459777.795   5844078.166
10 0 59735  67782.000000  0    2505435.477  -1372100.135   6257630.674
10 0 59735  67902.000000  0    1645457.925  -1245784.811   6561165.382
10 0 59735  68022.000000  0     759300.433  -1082447.389   6749377.827
10 0 59735  68142.000000  0    -136943.490   -884624.516   6818982.169
10 0 59735  68262.000000  0   -1027062.590   -655734.352   6768763.634
10 0 59735  68382.000000  0   -1895019.665   -400017.656   6599597.941
10 0 59735  68502.000000  0   -2725239.037   -122459.607   6314437.014
10 0 59735  68622.000000  0   -3502885.802    171306.091   5918261.824
10 0 59735  68742.000000  0   -4214133.553    475109.245   5418001.425
10 0 59735  68862.000000  0   -4846415.389    782369.614   4822417.635
10 0 59735  68982.000000  0   -5388653.440   1086235.634   4141957.297
10 0 59735  69102.000000  0   -5831461.576   1379732.938   3388572.316
10 0 59735  69222.000000  0   -6167316.690   1655919.199   2575511.724
10 0 59735  69342.000000  0   -6390695.703   1908041.835   1717087.999
10 0 59735  69462.000000  0   -6498174.620   2129694.969    828421.389
10 0 59735  69582.000000  0   -6488485.425   2314971.991    -74833.983
10 0 59735  69702.000000  0   -6362528.719   2458608.420   -976774.700
10 0 59735  69822.000000  0   -6123342.611   2556112.156  -1861536.870
10 0 59735  69942.000000  0   -5776029.308   2603878.491  -2713583.482
10 0 59735  70062.000000  0   -5327639.390   2599286.182  -3517984.337
10 0 59735  70182.000000  0   -4787018.591   2540771.525  -4260680.301
10 0 59735  70302.000000  0   -4164622.569   2427880.019  -4928727.653
10 0 59735  70422.000000  0   -3472304.111   2261294.788  -5510517.763
10 0 59735  70542.000000  0   -2723079.982   2042842.041  -5995969.301
10 0 59735  70662.000000  0   -1930881.845   1775473.536  -6376693.144
10 0 59735  70782.000000  0   -1110294.126   1463225.966  -6646125.674
10 0 59735  70902.000000  0    -276287.752   1111159.064  -6799630.044
10 0 59735  71022.000000  0     556047.591    725273.819  -6834566.651
10 0 59735  71142.000000  0    1371768.978    312412.443  -6750335.085
10 0 59735  71262.000000  0    2156343.639   -119860.551  -6548383.910
10 0 59735  71382.000000  0    2895901.642   -563393.179  -6232187.803
10 0 59735  71502.000000  0    3577477.847  -1009595.238  -5807194.404
10 0 59735  71622.000000  0    4189237.218  -1449599.513  -5280739.270
10 0 59735  71742.000000  0    4720683.182  -1874434.173  -4661931.739
10 0 59735  71862.000000  0    5162843.755  -2275203.207  -3961508.254
10 0 59735  71982.000000  0    5508431.384  -2643270.418  -3191656.116
10 0 59735  72102.000000  0    5751973.613  -2970443.625  -2365808.567
10 0 59735  72222.000000  0    5889909.831  -3249154.806  -1498413.488
10 0 59735  72342.000000  0    5920651.556  -3472631.630   -604680.899
10 0 59735  72462.000000  0    5844604.478  -3635056.535    299686.923
10 0 59735  72582.000000  0    5664150.448  -3731708.976   1198779.160
10 0 59735  72702.000000  0    5383590.004  -3759086.870   2076764.019
10 0 59735  72822.000000  0    5009043.748  -3715001.916   2918177.728
10 0 59735  72942.000000  0    4548318.305  -3598648.408   3708204.005
10 0 59735  73062.000000  0    4010740.689  -3410643.012   4432940.362
10 0 59735  73182.000000  0    3406964.381  -3153036.440   5079646.751
10 0 59735  73302.000000  0    2748750.457  -2829294.373   5636969.738
10 0 59735  73422.000000  0    2048732.683  -2444249.402   6095138.959
10 0 59735  73542.000000  0    1320169.692  -2004026.255   6446133.480
10 0 59735  73662.000000  0     576690.462  -1515941.661   6683816.215
10 0 59735  73782.000000  0    -167962.289   -988380.230   6804035.252
10 0 59735  73902.000000  0    -900185.960   -430648.881   6804691.375
10 0 59735  74022.000000  0   -1606765.380    147187.360   6685772.011
10 0 59735  74142.000000  0   -2275110.393    734486.599   6449351.568
10 0 59735  74262.000000  0   -2893479.964   1320225.224   6099557.750
10 0 59735  74382.000000  0   -3451189.551   1893203.869   5642504.302
10 0 59735  74502.000000  0   -3938799.260   2442261.465   5086190.925
10 0 59735  74622.000000  0   -4348278.935   2956494.420   4440369.361
10 0 59735  74742.000000  0   -4673146.855   3425475.166   3716376.873
10 0 59735  74862.000000  0   -4908578.367   3839465.865   2926939.691
10 0 59735  74982.000000  0   -5051481.915   4189623.544   2085949.895
10 0 59735  75102.000000  0   -5100541.689   4468191.781   1208218.476
10 0 59735  75222.000000  0   -5056223.280   4668672.694    309207.860
10 0 59735  75342.000000  0   -4920743.292   4785973.683   -595248.274
10 0 59735  75462.000000  0   -4698004.359   4816528.060  -1489232.371
10 0 59735  75582.000000  0   -4393493.905   4758384.743  -2357033.192
10 0 59735  75702.000000  0   -4014152.151   4611263.426  -3183430.125
10 0 59735  75822.000000  0   -3568212.125   4376575.060  -3953964.416
10 0 59735  75942.000000  0   -3065016.729   4057408.437  -4655191.664
10 0 59735  76062.000000  0   -2514819.008   3658484.219  -5274911.256
10 0 59735  76182.000000  0   -1928571.286   3186079.504  -5802370.919
10 0 59735  76302.000000  0   -1317705.503   2647922.784  -6228444.580
10 0 59735  76422.000000  0    -693910.046   2053061.554  -6545779.058
10 0 59735  76542.000000  0     -68908.494   1411707.648  -6748908.959
10 0 59735  76662.000000  0     545755.912    735062.091  -6834340.871
10 0 59735  76782.000000  0    1138928.179     35122.913  -6800607.971
10 0 59735  76902.000000  0    1700040.034   -675523.726  -6648292.121
10 0 59735  77022.000000  0    2219293.108  -1383924.155  -6380013.616
10 0 59735  77142.000000  0    2687826.912  -2076987.109  -6000391.311
10 0 59735  77262.000000  0    3097868.875  -2741719.842  -5515972.170
10 0 59735  77382.000000  0    3442865.707  -3365470.374  -4935130.734
10 0 59735  77502.000000  0    3717591.595  -3936169.346  -4267933.535
10 0 59735  77622.000000  0    3918230.223  -4442564.582  -3525974.717
10 0 59735  77742.000000  0    4042431.863  -4874447.070  -2722184.423
10 0 59735  77862.000000  0    4089343.311  -5222863.564  -1870609.435
10 0 59735  77982.000000  0    4059606.726  -5480309.141   -986168.533
10 0 59735  78102.000000  0    3955328.697  -5640893.647    -84388.678
10 0 59735  78222.000000  0    3780018.742  -5700478.260    818873.500
10 0 59735  78342.000000  0    3538499.277  -5656778.255   1707718.249
10 0 59735  78462.000000  0    3236788.632  -5509427.749   2566492.769
10 0 59735  78582.000000  0    2881958.847  -5260004.924   3380074.623
10 0 59735  78702.000000  0    2481974.367  -4912019.031   4134144.315
10 0 59735  78822.000000  0    2045515.538  -4470858.276   4815441.600
10 0 59735  78942.000000  0    1581790.363  -3943700.230   5412000.166
10 0 59735  79062.000000  0    1100340.044  -3339387.560   5913357.007
10 0 59735  79182.000000  0     610841.086  -2668271.275   6310731.838
10 0 59735  79302.000000  0     122910.437  -1942027.246   6597173.939
10 0 59735  79422.000000  0    -354082.573  -1173449.498   6767676.924
10 0 59735  79542.000000  0    -811194.846   -376223.194   6819262.225
10 0 59735  79662.000000  0   -1240076.162    435320.227   6751028.069
10 0 59735  79782.000000  0   -1633121.268   1246460.407   6564163.962
99
